[{"OBJECT_NAME":"STARLINK-31503","OBJECT_ID":"2024-045Y","EPOCH":"2026-03-20T13:13:18.782976","MEAN_MOTION":15.27579368,"ECCENTRICITY":0.0001086,"INCLINATION":43.0024,"RA_OF_ASC_NODE":31.1,"ARG_OF_PERICENTER":292.6056,"MEAN_ANOMALY":67.4681,"EPHEMERIS_TYPE":0,"CLASSIFICATION_TYPE":"U","NORAD_CAT_ID":59200,"ELEMENT_SET_NO":999,"REV_AT_EPOCH":11482,"BSTAR":-5.982431e-6,"MEAN_MOTION_DOT":-4.27e-6,"MEAN_MOTION_DDOT":0},{"OBJECT_NAME":"STARLINK-31603","OBJECT_ID":"2024-046A","EPOCH":"2026-03-20T10:53:26.416608","MEAN_MOTION":15.30189703,"ECCENTRICITY":0.00011597,"INCLINATION":53.1605,"RA_OF_ASC_NODE":105.6219,"ARG_OF_PERICENTER":97.4506,"MEAN_ANOMALY":262.6627,"EPHEMERIS_TYPE":0,"CLASSIFICATION_TYPE":"U","NORAD_CAT_ID":59201,"ELEMENT_SET_NO":999,"REV_AT_EPOCH":11469,"BSTAR":3.1839668e-5,"MEAN_MOTION_DOT":5.84e-6,"MEAN_MOTION_DDOT":0},{"OBJECT_NAME":"STARLINK-31602","OBJECT_ID":"2024-046B","EPOCH":"2026-03-20T11:34:17.969952","MEAN_MOTION":15.30196657,"ECCENTRICITY":0.00012057,"INCLINATION":53.1595,"RA_OF_ASC_NODE":105.0855,"ARG_OF_PERICENTER":81.1707,"MEAN_ANOMALY":278.943,"EPHEMERIS_TYPE":0,"CLASSIFICATION_TYPE":"U","NORAD_CAT_ID":59202,"ELEMENT_SET_NO":999,"REV_AT_EPOCH":11470,"BSTAR":4.2561823e-5,"MEAN_MOTION_DOT":9.01e-6,"MEAN_MOTION_DDOT":0},{"OBJECT_NAME":"STARLINK-31577","OBJECT_ID":"2024-046C","EPOCH":"2026-03-20T14:00:01.999872","MEAN_MOTION":15.30206151,"ECCENTRICITY":0.00020734,"INCLINATION":53.1588,"RA_OF_ASC_NODE":104.3666,"ARG_OF_PERICENTER":77.4553,"MEAN_ANOMALY":248.3389,"EPHEMERIS_TYPE":0,"CLASSIFICATION_TYPE":"U","NORAD_CAT_ID":59203,"ELEMENT_SET_NO":999,"REV_AT_EPOCH":585,"BSTAR":0.0010780802,"MEAN_MOTION_DOT":0.00031713,"MEAN_MOTION_DDOT":0},{"OBJECT_NAME":"STARLINK-31522","OBJECT_ID":"2024-046D","EPOCH":"2026-03-20T09:16:20.748000","MEAN_MOTION":15.30203464,"ECCENTRICITY":0.00011786,"INCLINATION":53.1604,"RA_OF_ASC_NODE":105.9144,"ARG_OF_PERICENTER":86.8368,"MEAN_ANOMALY":273.2768,"EPHEMERIS_TYPE":0,"CLASSIFICATION_TYPE":"U","NORAD_CAT_ID":59204,"ELEMENT_SET_NO":999,"REV_AT_EPOCH":11468,"BSTAR":3.90159e-5,"MEAN_MOTION_DOT":7.97e-6,"MEAN_MOTION_DDOT":0},{"OBJECT_NAME":"STARLINK-31586","OBJECT_ID":"2024-046E","EPOCH":"2026-03-20T08:39:52.161696","MEAN_MOTION":15.30197642,"ECCENTRICITY":0.00011042,"INCLINATION":53.16,"RA_OF_ASC_NODE":105.7495,"ARG_OF_PERICENTER":82.3611,"MEAN_ANOMALY":277.7515,"EPHEMERIS_TYPE":0,"CLASSIFICATION_TYPE":"U","NORAD_CAT_ID":59205,"ELEMENT_SET_NO":999,"REV_AT_EPOCH":11468,"BSTAR":2.0170934e-5,"MEAN_MOTION_DOT":2.38e-6,"MEAN_MOTION_DDOT":0},{"OBJECT_NAME":"STARLINK-31247","OBJECT_ID":"2024-046F","EPOCH":"2026-03-20T12:07:45.515424","MEAN_MOTION":15.3018577,"ECCENTRICITY":0.00012036,"INCLINATION":53.1596,"RA_OF_ASC_NODE":105.2275,"ARG_OF_PERICENTER":80.934,"MEAN_ANOMALY":279.1797,"EPHEMERIS_TYPE":0,"CLASSIFICATION_TYPE":"U","NORAD_CAT_ID":59206,"ELEMENT_SET_NO":999,"REV_AT_EPOCH":11470,"BSTAR":8.666117e-6,"MEAN_MOTION_DOT":-1.03e-6,"MEAN_MOTION_DDOT":0},{"OBJECT_NAME":"STARLINK-31591","OBJECT_ID":"2024-046G","EPOCH":"2026-03-20T11:37:20.366400","MEAN_MOTION":15.30197153,"ECCENTRICITY":0.00013598,"INCLINATION":53.1597,"RA_OF_ASC_NODE":105.1005,"ARG_OF_PERICENTER":74.124,"MEAN_ANOMALY":285.991,"EPHEMERIS_TYPE":0,"CLASSIFICATION_TYPE":"U","NORAD_CAT_ID":59207,"ELEMENT_SET_NO":999,"REV_AT_EPOCH":11470,"BSTAR":4.1205413e-5,"MEAN_MOTION_DOT":8.61e-6,"MEAN_MOTION_DDOT":0},{"OBJECT_NAME":"STARLINK-31576","OBJECT_ID":"2024-046H","EPOCH":"2026-03-20T11:25:11.043264","MEAN_MOTION":15.30199453,"ECCENTRICITY":0.00017892,"INCLINATION":53.16,"RA_OF_ASC_NODE":105.0466,"ARG_OF_PERICENTER":77.9625,"MEAN_ANOMALY":282.1577,"EPHEMERIS_TYPE":0,"CLASSIFICATION_TYPE":"U","NORAD_CAT_ID":59208,"ELEMENT_SET_NO":999,"REV_AT_EPOCH":11470,"BSTAR":2.3662175e-5,"MEAN_MOTION_DOT":3.41e-6,"MEAN_MOTION_DDOT":0},{"OBJECT_NAME":"STARLINK-31601","OBJECT_ID":"2024-046J","EPOCH":"2026-03-20T08:01:52.852800","MEAN_MOTION":15.30191642,"ECCENTRICITY":0.0001307,"INCLINATION":53.1603,"RA_OF_ASC_NODE":105.5869,"ARG_OF_PERICENTER":77.2912,"MEAN_ANOMALY":282.8235,"EPHEMERIS_TYPE":0,"CLASSIFICATION_TYPE":"U","NORAD_CAT_ID":59209,"ELEMENT_SET_NO":999,"REV_AT_EPOCH":11468,"BSTAR":2.2011e-5,"MEAN_MOTION_DOT":2.93e-6,"MEAN_MOTION_DDOT":0},{"OBJECT_NAME":"STARLINK-31520","OBJECT_ID":"2024-046K","EPOCH":"2026-03-20T08:55:03.948672","MEAN_MOTION":15.30201854,"ECCENTRICITY":0.00013686,"INCLINATION":53.1595,"RA_OF_ASC_NODE":105.8154,"ARG_OF_PERICENTER":115.1613,"MEAN_ANOMALY":244.9529,"EPHEMERIS_TYPE":0,"CLASSIFICATION_TYPE":"U","NORAD_CAT_ID":59210,"ELEMENT_SET_NO":999,"REV_AT_EPOCH":11468,"BSTAR":-7.7982731e-5,"MEAN_MOTION_DOT":-2.668e-5,"MEAN_MOTION_DDOT":0},{"OBJECT_NAME":"STARLINK-31496","OBJECT_ID":"2024-046L","EPOCH":"2026-03-20T10:29:50.810496","MEAN_MOTION":15.30191859,"ECCENTRICITY":0.00013028,"INCLINATION":53.1605,"RA_OF_ASC_NODE":92.74,"ARG_OF_PERICENTER":78.3201,"MEAN_ANOMALY":281.7946,"EPHEMERIS_TYPE":0,"CLASSIFICATION_TYPE":"U","NORAD_CAT_ID":59211,"ELEMENT_SET_NO":999,"REV_AT_EPOCH":11486,"BSTAR":2.6043757e-5,"MEAN_MOTION_DOT":4.12e-6,"MEAN_MOTION_DDOT":0},{"OBJECT_NAME":"STARLINK-31492","OBJECT_ID":"2024-046M","EPOCH":"2026-03-20T10:56:28.365504","MEAN_MOTION":15.30188876,"ECCENTRICITY":0.0001175,"INCLINATION":53.1604,"RA_OF_ASC_NODE":105.6266,"ARG_OF_PERICENTER":85.7813,"MEAN_ANOMALY":274.3322,"EPHEMERIS_TYPE":0,"CLASSIFICATION_TYPE":"U","NORAD_CAT_ID":59212,"ELEMENT_SET_NO":999,"REV_AT_EPOCH":11468,"BSTAR":3.77878e-6,"MEAN_MOTION_DOT":-2.47e-6,"MEAN_MOTION_DDOT":0},{"OBJECT_NAME":"STARLINK-31517","OBJECT_ID":"2024-046N","EPOCH":"2026-03-20T11:38:51.618624","MEAN_MOTION":15.30200171,"ECCENTRICITY":0.00012095,"INCLINATION":53.1604,"RA_OF_ASC_NODE":105.1313,"ARG_OF_PERICENTER":80.4843,"MEAN_ANOMALY":279.6294,"EPHEMERIS_TYPE":0,"CLASSIFICATION_TYPE":"U","NORAD_CAT_ID":59213,"ELEMENT_SET_NO":999,"REV_AT_EPOCH":11469,"BSTAR":2.8176283e-5,"MEAN_MOTION_DOT":4.75e-6,"MEAN_MOTION_DDOT":0},{"OBJECT_NAME":"STARLINK-31604","OBJECT_ID":"2024-046P","EPOCH":"2026-03-20T11:43:26.460480","MEAN_MOTION":15.30207341,"ECCENTRICITY":0.00012758,"INCLINATION":53.1576,"RA_OF_ASC_NODE":105.1206,"ARG_OF_PERICENTER":67.9287,"MEAN_ANOMALY":292.1849,"EPHEMERIS_TYPE":0,"CLASSIFICATION_TYPE":"U","NORAD_CAT_ID":59214,"ELEMENT_SET_NO":999,"REV_AT_EPOCH":11469,"BSTAR":0.00038637589,"MEAN_MOTION_DOT":0.00011104,"MEAN_MOTION_DDOT":0},{"OBJECT_NAME":"STARLINK-31434","OBJECT_ID":"2024-046Q","EPOCH":"2026-03-20T11:05:25.672416","MEAN_MOTION":15.30193388,"ECCENTRICITY":0.00014608,"INCLINATION":53.16,"RA_OF_ASC_NODE":104.9594,"ARG_OF_PERICENTER":73.7493,"MEAN_ANOMALY":286.3668,"EPHEMERIS_TYPE":0,"CLASSIFICATION_TYPE":"U","NORAD_CAT_ID":59215,"ELEMENT_SET_NO":999,"REV_AT_EPOCH":11469,"BSTAR":4.6061966e-5,"MEAN_MOTION_DOT":1.005e-5,"MEAN_MOTION_DDOT":0}]
