[
  {
    "name": "STARLINK-31503",
    "tle1": "1 59200U 24045Y   26079.55091184 -.00000427  00000+0 -59824-5 0  9995",
    "tle2": "2 59200  43.0024  31.1000 0001086 292.6056  67.4681 15.27579368114822"
  },
  {
    "name": "STARLINK-31603",
    "tle1": "1 59201U 24046A   26079.45377797  .00000584  00000+0  31840-4 0  9992",
    "tle2": "2 59201  53.1605 105.6219 0001159  97.4506 262.6627 15.30189703114699"
  },
  {
    "name": "STARLINK-31602",
    "tle1": "1 59202U 24046B   26079.48215243  .00000901  00000+0  42562-4 0  9999",
    "tle2": "2 59202  53.1595 105.0855 0001205  81.1707 278.9430 15.30196657114703"
  },
  {
    "name": "STARLINK-31577",
    "tle1": "1 59203U 24046C   26079.58335648  .00031713  00000+0  10781-2 0  9994",
    "tle2": "2 59203  53.1588 104.3666 0002073  77.4553 248.3389 15.30206151  5859"
  },
  {
    "name": "STARLINK-31522",
    "tle1": "1 59204U 24046D   26079.38635125  .00000797  00000+0  39016-4 0  9998",
    "tle2": "2 59204  53.1604 105.9144 0001178  86.8368 273.2768 15.30203464114684"
  },
  {
    "name": "STARLINK-31586",
    "tle1": "1 59205U 24046E   26079.36102039  .00000238  00000+0  20171-4 0  9992",
    "tle2": "2 59205  53.1600 105.7495 0001104  82.3611 277.7515 15.30197642114688"
  },
  {
    "name": "STARLINK-31247",
    "tle1": "1 59206U 24046F   26079.50538791 -.00000103  00000+0  86661-5 0  9996",
    "tle2": "2 59206  53.1596 105.2275 0001203  80.9340 279.1797 15.30185770114707"
  },
  {
    "name": "STARLINK-31591",
    "tle1": "1 59207U 24046G   26079.48426350  .00000861  00000+0  41205-4 0  9995",
    "tle2": "2 59207  53.1597 105.1005 0001359  74.1240 285.9910 15.30197153114705"
  },
  {
    "name": "STARLINK-31576",
    "tle1": "1 59208U 24046H   26079.47582226  .00000341  00000+0  23662-4 0  9990",
    "tle2": "2 59208  53.1600 105.0466 0001789  77.9625 282.1577 15.30199453114709"
  },
  {
    "name": "STARLINK-31601",
    "tle1": "1 59209U 24046J   26079.33463950  .00000293  00000+0  22011-4 0  9991",
    "tle2": "2 59209  53.1603 105.5869 0001307  77.2912 282.8235 15.30191642114680"
  },
  {
    "name": "STARLINK-31520",
    "tle1": "1 59210U 24046K   26079.37157348 -.00002668  00000+0 -77983-4 0  9996",
    "tle2": "2 59210  53.1595 105.8154 0001368 115.1613 244.9529 15.30201854114681"
  },
  {
    "name": "STARLINK-31496",
    "tle1": "1 59211U 24046L   26079.43739364  .00000412  00000+0  26044-4 0  9993",
    "tle2": "2 59211  53.1605  92.7400 0001302  78.3201 281.7946 15.30191859114868"
  },
  {
    "name": "STARLINK-31492",
    "tle1": "1 59212U 24046M   26079.45588386 -.00000247  00000+0  37788-5 0  9997",
    "tle2": "2 59212  53.1604 105.6266 0001175  85.7813 274.3322 15.30188876114682"
  },
  {
    "name": "STARLINK-31517",
    "tle1": "1 59213U 24046N   26079.48531966  .00000475  00000+0  28176-4 0  9995",
    "tle2": "2 59213  53.1604 105.1313 0001209  80.4843 279.6294 15.30200171114694"
  },
  {
    "name": "STARLINK-31604",
    "tle1": "1 59214U 24046P   26079.48850070  .00011104  00000+0  38638-3 0  9990",
    "tle2": "2 59214  53.1576 105.1206 0001275  67.9287 292.1849 15.30207341114691"
  },
  {
    "name": "STARLINK-31434",
    "tle1": "1 59215U 24046Q   26079.46210269  .00001005  00000+0  46062-4 0  9999",
    "tle2": "2 59215  53.1600 104.9594 0001460  73.7493 286.3668 15.30193388114696"
  }
]